{
  "type": "FeatureCollection",
  "features": [
    {
      "type": "Feature",
      "properties": {
        "norad_id": 66774,
        "name": "TRANSPORTER-15DN",
        "group": "last-30-days",
        "lat": -58.14232260684501,
        "lon": 83.87847307659231,
        "alt_km": 518.9565101217422,
        "timestamp": "2025-12-26T03:50:10.807468+00:00",
        "meta_object_name": "TRANSPORTER-15DN",
        "meta_object_id": "2025-276DN",
        "meta_epoch": "2025-12-25T18:36:26.130816",
        "meta_mean_motion": 15.18625953,
        "meta_eccentricity": 0.0003033,
        "meta_inclination": 97.4409,
        "meta_ra_of_asc_node": 71.3592,
        "meta_arg_of_pericenter": 94.5296,
        "meta_mean_anomaly": 265.6285,
        "meta_ephemeris_type": 0,
        "meta_classification_type": "U",
        "meta_norad_cat_id": 66774,
        "meta_element_set_no": 999,
        "meta_rev_at_epoch": 410,
        "meta_bstar": 0.00050122,
        "meta_mean_motion_dot": 0.00010316,
        "meta_mean_motion_ddot": 0,
        "tle_line1": "1 66774U 25276DN  25359.77530244  .00010316  00000+0  50122-3 0  9991",
        "tle_line2": "2 66774  97.4409  71.3592 0003033  94.5296 265.6285 15.18625953  4100"
      },
      "geometry": {
        "type": "Point",
        "coordinates": [
          83.87847307659231,
          -58.14232260684501
        ]
      }
    },
    {
      "type": "Feature",
      "properties": {
        "norad_id": 66775,
        "name": "PHI 1",
        "group": "last-30-days",
        "lat": -53.3385981533642,
        "lon": 81.81774083019923,
        "alt_km": 517.6386964882495,
        "timestamp": "2025-12-26T03:50:10.807478+00:00",
        "meta_object_name": "PHI 1",
        "meta_object_id": "2025-276DP",
        "meta_epoch": "2025-12-25T17:00:16.130592",
        "meta_mean_motion": 15.18685285,
        "meta_eccentricity": 0.0002715,
        "meta_inclination": 97.4334,
        "meta_ra_of_asc_node": 71.2716,
        "meta_arg_of_pericenter": 63.296,
        "meta_mean_anomaly": 296.8552,
        "meta_ephemeris_type": 0,
        "meta_classification_type": "U",
        "meta_norad_cat_id": 66775,
        "meta_element_set_no": 999,
        "meta_rev_at_epoch": 409,
        "meta_bstar": 0.00036878,
        "meta_mean_motion_dot": 7.583e-05,
        "meta_mean_motion_ddot": 0,
        "tle_line1": "1 66775U 25276DP  25359.70852003  .00007583  00000+0  36878-3 0  9999",
        "tle_line2": "2 66775  97.4334  71.2716 0002715  63.2960 296.8552 15.18685285  4097"
      },
      "geometry": {
        "type": "Point",
        "coordinates": [
          81.81774083019923,
          -53.3385981533642
        ]
      }
    },
    {
      "type": "Feature",
      "properties": {
        "norad_id": 66776,
        "name": "TRANSPORTER-15DQ",
        "group": "last-30-days",
        "lat": -50.82334760964575,
        "lon": 80.95299115402211,
        "alt_km": 517.7688024654944,
        "timestamp": "2025-12-26T03:50:10.807492+00:00",
        "meta_object_name": "TRANSPORTER-15DQ",
        "meta_object_id": "2025-276DQ",
        "meta_epoch": "2025-12-25T18:34:29.832960",
        "meta_mean_motion": 15.18753272,
        "meta_eccentricity": 0.000281,
        "meta_inclination": 97.437,
        "meta_ra_of_asc_node": 71.3493,
        "meta_arg_of_pericenter": 79.7546,
        "meta_mean_anomaly": 280.4005,
        "meta_ephemeris_type": 0,
        "meta_classification_type": "U",
        "meta_norad_cat_id": 66776,
        "meta_element_set_no": 999,
        "meta_rev_at_epoch": 410,
        "meta_bstar": 0.0009864,
        "meta_mean_motion_dot": 0.0002047,
        "meta_mean_motion_ddot": 0,
        "tle_line1": "1 66776U 25276DQ  25359.77395640  .00020470  00000+0  98640-3 0  9991",
        "tle_line2": "2 66776  97.4370  71.3493 0002810  79.7546 280.4005 15.18753272  4105"
      },
      "geometry": {
        "type": "Point",
        "coordinates": [
          80.95299115402211,
          -50.82334760964575
        ]
      }
    },
    {
      "type": "Feature",
      "properties": {
        "norad_id": 66777,
        "name": "TRANSPORTER-15DR",
        "group": "last-30-days",
        "lat": -35.73705447826061,
        "lon": 77.16514085646227,
        "alt_km": 517.1149693726957,
        "timestamp": "2025-12-26T03:50:10.807502+00:00",
        "meta_object_name": "TRANSPORTER-15DR",
        "meta_object_id": "2025-276DR",
        "meta_epoch": "2025-12-25T18:30:32.138784",
        "meta_mean_motion": 15.18984912,
        "meta_eccentricity": 0.0003496,
        "meta_inclination": 97.4461,
        "meta_ra_of_asc_node": 71.3822,
        "meta_arg_of_pericenter": 106.2163,
        "meta_mean_anomaly": 253.9457,
        "meta_ephemeris_type": 0,
        "meta_classification_type": "U",
        "meta_norad_cat_id": 66777,
        "meta_element_set_no": 999,
        "meta_rev_at_epoch": 410,
        "meta_bstar": 0.00060592,
        "meta_mean_motion_dot": 0.00012619,
        "meta_mean_motion_ddot": 0,
        "tle_line1": "1 66777U 25276DR  25359.77120531  .00012619  00000+0  60592-3 0  9998",
        "tle_line2": "2 66777  97.4461  71.3822 0003496 106.2163 253.9457 15.18984912  4108"
      },
      "geometry": {
        "type": "Point",
        "coordinates": [
          77.16514085646227,
          -35.73705447826061
        ]
      }
    },
    {
      "type": "Feature",
      "properties": {
        "norad_id": 66778,
        "name": "TRANSPORTER-15DS",
        "group": "last-30-days",
        "lat": 37.11342644097373,
        "lon": -102.65246782010132,
        "alt_km": 514.8457309147079,
        "timestamp": "2025-12-26T03:50:10.807512+00:00",
        "meta_object_name": "TRANSPORTER-15DS",
        "meta_object_id": "2025-276DS",
        "meta_epoch": "2025-12-18T19:26:21.991200",
        "meta_mean_motion": 15.16535337,
        "meta_eccentricity": 0.00032319,
        "meta_inclination": 97.4427,
        "meta_ra_of_asc_node": 64.4586,
        "meta_arg_of_pericenter": 41.3734,
        "meta_mean_anomaly": 318.7744,
        "meta_ephemeris_type": 0,
        "meta_classification_type": "U",
        "meta_norad_cat_id": 66778,
        "meta_element_set_no": 999,
        "meta_rev_at_epoch": 304,
        "meta_bstar": 0.00025483693,
        "meta_mean_motion_dot": 4.904e-05,
        "meta_mean_motion_ddot": 0,
        "tle_line1": "1 66778U 25276DS  25352.80997675  .00004904  00000+0  25484-3 0  9996",
        "tle_line2": "2 66778  97.4427  64.4586 0003231  41.3734 318.7744 15.16535337  3043"
      },
      "geometry": {
        "type": "Point",
        "coordinates": [
          -102.65246782010132,
          37.11342644097373
        ]
      }
    },
    {
      "type": "Feature",
      "properties": {
        "norad_id": 66791,
        "name": "STARLINK-35867",
        "group": "last-30-days",
        "lat": 15.131466470603263,
        "lon": -25.0163793215126,
        "alt_km": 442.92434266725104,
        "timestamp": "2025-12-26T03:50:10.807525+00:00",
        "meta_object_name": "STARLINK-35867",
        "meta_object_id": "2025-278A",
        "meta_epoch": "2025-12-25T20:00:01.999008",
        "meta_mean_motion": 15.41179899,
        "meta_eccentricity": 0.0002026,
        "meta_inclination": 43.0004,
        "meta_ra_of_asc_node": 173.7348,
        "meta_arg_of_pericenter": 286.2391,
        "meta_mean_anomaly": 217.9322,
        "meta_ephemeris_type": 0,
        "meta_classification_type": "U",
        "meta_norad_cat_id": 66791,
        "meta_element_set_no": 999,
        "meta_rev_at_epoch": 506,
        "meta_bstar": -0.021479,
        "meta_mean_motion_dot": -0.0084295,
        "meta_mean_motion_ddot": 0,
        "tle_line1": "1 66791U 25278A   25359.83335647 -.00842950  00000+0 -21479-1 0  9999",
        "tle_line2": "2 66791  43.0004 173.7348 0002026 286.2391 217.9322 15.41179899  5067"
      },
      "geometry": {
        "type": "Point",
        "coordinates": [
          -25.0163793215126,
          15.131466470603263
        ]
      }
    },
    {
      "type": "Feature",
      "properties": {
        "norad_id": 66792,
        "name": "STARLINK-35990",
        "group": "last-30-days",
        "lat": -14.953689543990807,
        "lon": 8.398555512633035,
        "alt_km": 416.2876913438304,
        "timestamp": "2025-12-26T03:50:10.807536+00:00",
        "meta_object_name": "STARLINK-35990",
        "meta_object_id": "2025-278B",
        "meta_epoch": "2025-12-25T20:00:01.999008",
        "meta_mean_motion": 15.50581186,
        "meta_eccentricity": 0.0001653,
        "meta_inclination": 43.0002,
        "meta_ra_of_asc_node": 173.6533,
        "meta_arg_of_pericenter": 273.1883,
        "meta_mean_anomaly": 264.3224,
        "meta_ephemeris_type": 0,
        "meta_classification_type": "U",
        "meta_norad_cat_id": 66792,
        "meta_element_set_no": 999,
        "meta_rev_at_epoch": 506,
        "meta_bstar": -0.00088083,
        "meta_mean_motion_dot": -0.0005168,
        "meta_mean_motion_ddot": 0,
        "tle_line1": "1 66792U 25278B   25359.83335647 -.00051680  00000+0 -88083-3 0  9998",
        "tle_line2": "2 66792  43.0002 173.6533 0001653 273.1883 264.3224 15.50581186  5060"
      },
      "geometry": {
        "type": "Point",
        "coordinates": [
          8.398555512633035,
          -14.953689543990807
        ]
      }
    }
  ]
}